{
    "CCSDS_OMM_VERS": "3.0",
    "COMMENT": "GENERATED VIA SPACE-TRACK.ORG API",
    "CREATION_DATE": "2025-11-23T23:16:19",
    "ORIGINATOR": "18 SPCS",
    "OBJECT_NAME": "GALILEO 32 (137)",
    "OBJECT_ID": "2024-167A",
    "CENTER_NAME": "EARTH",
    "REF_FRAME": "TEME",
    "TIME_SYSTEM": "UTC",
    "MEAN_ELEMENT_THEORY": "SGP4",
    "EPOCH": "2025-11-23T16:16:27.757056",
    "MEAN_MOTION": "1.70473413",
    "ECCENTRICITY": "0.00023810",
    "INCLINATION": "55.2480",
    "RA_OF_ASC_NODE": "226.9547",
    "ARG_OF_PERICENTER": "222.3608",
    "MEAN_ANOMALY": "319.2069",
    "EPHEMERIS_TYPE": "0",
    "CLASSIFICATION_TYPE": "U",
    "NORAD_CAT_ID": "61182",
    "ELEMENT_SET_NO": "999",
    "REV_AT_EPOCH": "737",
    "BSTAR": "0.00000000000000",
    "MEAN_MOTION_DOT": "0.00000030",
    "MEAN_MOTION_DDOT": "0.0000000000000",
    "SEMIMAJOR_AXIS": "29600.388",
    "PERIOD": "844.706",
    "APOAPSIS": "23229.301",
    "PERIAPSIS": "23215.205",
    "OBJECT_TYPE": "PAYLOAD",
    "RCS_SIZE": "LARGE",
    "COUNTRY_CODE": "ESA",
    "LAUNCH_DATE": "2024-09-17",
    "SITE": "AFETR",
    "DECAY_DATE": null,
    "FILE": "4896700",
    "GP_ID": "303360525",
    "TLE_LINE0": "0 GALILEO 32 (137)",
    "TLE_LINE1": "1 61182U 24167A   25327.67809904  .00000030  00000-0  00000+0 0  9992",
    "TLE_LINE2": "2 61182  55.2480 226.9547 0002381 222.3608 319.2069  1.70473413  7373"
}